341843 2008 EV5,e,7.4369,93.4003,234.7885,0.958315,1.0506108,0.08359561,32.8197,05/23.0/2014,2000,H20.0,0.15
# From MPO238834
342078 2008 SY36,e,4.8972,347.0677,30.7049,2.526694,0.2454004,0.25254052,132.3870,05/23.0/2014,2000,H17.8,0.15
# From MPO264872
342183 2008 SX190,e,9.5742,349.6901,346.6548,2.537004,0.2439059,0.10614661,168.2572,05/23.0/2014,2000,H16.7,0.15
# From MPO248720
343231 2009 WS119,e,2.6513,244.8662,319.5905,2.118553,0.3196283,0.05436311,25.5568,05/23.0/2014,2000,H17.9,0.15
# From MPO248722
344051 4074 T-2,e,2.2570,54.8472,317.3935,2.652172,0.2281926,0.29150077,141.5163,05/23.0/2014,2000,H17.3,0.15
# From MPO242126
344074 1997 UH9,e,25.4924,42.4206,180.8973,0.830063,1.3032804,0.47467177,135.2364,05/23.0/2014,2000,H18.7,0.15
# From MPO251947
344175 2001 BO30,e,4.2624,299.9439,164.6362,2.553916,0.2414873,0.21849697,106.5027,05/23.0/2014,2000,H17.1,0.15
# From MPO242315
344756 2003 VO2,e,7.1220,268.6629,229.0444,1.315159,0.6534869,0.10051273,271.1734,05/23.0/2014,2000,H20.9,0.15
# From MPO291953
344950 2004 VO52,e,3.8882,132.9926,271.2082,2.516001,0.2469664,0.10569668,149.4194,05/23.0/2014,2000,H16.5,0.15
# From MPO288298
345722 2007 BG29,e,18.5117,61.0137,245.0969,0.832520,1.2975131,0.33472331,91.6988,05/23.0/2014,2000,H18.0,0.15
# From MPO291963
346454 2008 TE50,e,0.9763,174.1466,6.9202,2.382668,0.2679839,0.12919876,32.0412,05/23.0/2014,2000,H17.5,0.15
# From MPO291963
346495 2008 UL75,e,5.1021,62.1072,345.7505,2.519004,0.2465248,0.02962629,139.6881,05/23.0/2014,2000,H17.5,0.15
# From MPO242766
346547 2008 UB304,e,9.7433,248.2677,108.4553,2.518236,0.2466377,0.22354493,163.5761,05/23.0/2014,2000,H17.1,0.15
# From MPO288308
347035 2010 EE94,e,2.8252,59.5753,288.7642,2.520701,0.2462761,0.12601089,200.9939,05/23.0/2014,2000,H16.9,0.15
# From MPO288312
347569 2000 WK130,e,11.9083,257.8290,75.0116,2.517052,0.2468117,0.18974864,219.8475,05/23.0/2014,2000,H15.4,0.15
# From MPO291969
347575 2001 AC6,e,5.6588,281.7463,100.2542,2.521776,0.2461185,0.27023471,174.5941,05/23.0/2014,2000,H16.4,0.15
# From MPO246068
347634 2001 SW269,e,24.4640,191.2575,29.4424,1.122360,0.8289069,0.55410359,341.4247,05/23.0/2014,2000,H19.5,0.15
# From MPO246206
348124 2004 BY2,e,8.2947,321.2171,262.1709,2.542360,0.2431356,0.15193618,113.5693,05/23.0/2014,2000,H16.4,0.15
# From MPO291973
348286 2004 XF26,e,6.8739,67.4996,305.8775,2.525122,0.2456295,0.21746768,182.9716,05/23.0/2014,2000,H15.9,0.15
# From MPO291973
348293 2004 XJ109,e,4.2193,337.8044,43.5368,2.522867,0.2459589,0.27612682,167.3013,05/23.0/2014,2000,H16.3,0.15
# From MPO260690
349329 2007 VS5,e,8.1196,329.3461,64.5737,2.526551,0.2454211,0.21156426,238.4273,05/23.0/2014,2000,H16.7,0.15
# From MPO246607
349661 2008 VS48,e,0.8749,204.4695,250.6068,2.557659,0.2409573,0.14130826,102.5904,05/23.0/2014,2000,H17.8,0.15
# From MPO260690
349704 2008 XH51,e,8.5977,63.6763,347.3427,2.528158,0.2451872,0.26278410,155.3944,05/23.0/2014,2000,H16.8,0.15
# From MPO254686
350652 2001 TJ214,e,6.9855,302.3950,58.0603,2.307083,0.2812608,0.22519119,230.4199,05/23.0/2014,2000,H17.9,0.15
# From MPO249216
351341 2005 AY5,e,4.3314,46.8306,11.9638,2.560124,0.2406093,0.16909454,143.4240,05/23.0/2014,2000,H16.7,0.15
# From MPO249225
351371 2005 EM11,e,5.8058,13.6179,170.6589,2.546109,0.2425987,0.24106730,80.7480,05/23.0/2014,2000,H17.4,0.15
# From MPO264878
351447 2005 JV108,e,29.6976,115.2199,107.8221,2.636854,0.2301839,0.31840413,67.8412,05/23.0/2014,2000,H15.4,0.15
# From MPO288338
352857 2008 WB84,e,4.4082,297.4672,21.1498,2.520426,0.2463163,0.18654691,230.7749,05/23.0/2014,2000,H16.4,0.15
# From MPO249615
352927 2008 YG171,e,2.9832,195.3594,243.1049,2.554719,0.2413734,0.22354667,133.0074,05/23.0/2014,2000,H17.3,0.15
# From MPO254706
352985 2009 BG95,e,3.6470,334.4310,325.0967,2.522688,0.2459851,0.03795375,299.4869,05/23.0/2014,2000,H17.2,0.15
# From MPO254715
353911 2012 XQ116,e,5.7555,174.3954,250.2382,2.515245,0.2470778,0.18218926,140.6767,05/23.0/2014,2000,H16.7,0.15
# From MPO252181
353937 1997 SO14,e,6.2243,351.5041,345.5935,2.307973,0.2810982,0.20479548,294.4807,05/23.0/2014,2000,H17.8,0.15
# From MPO258273
353947 1999 CT8,e,44.5019,337.1471,40.0505,1.249522,0.7056481,0.39373481,50.5522,05/23.0/2014,2000,H18.7,0.15
# From MPO252189
353964 1999 VY152,e,3.4784,93.8148,266.0650,2.534648,0.2442460,0.11651136,261.6074,05/23.0/2014,2000,H17.7,0.15
# From MPO264880
354006 2001 DX11,e,11.7880,342.9780,70.9611,2.540904,0.2433445,0.31711156,163.8239,05/23.0/2014,2000,H15.7,0.15
# From MPO292008
354059 2001 TR97,e,9.5336,1.6230,7.3066,2.920315,0.1974966,0.11964040,207.5948,05/23.0/2014,2000,H15.8,0.15
# From MPO252367
354607 2005 CT40,e,3.7273,24.1347,227.4247,2.516197,0.2469376,0.10018071,12.2709,05/23.0/2014,2000,H17.4,0.15
# From MPO264881
354663 2005 LY19,e,30.0046,338.4571,120.2348,1.601856,0.4861485,0.23988773,314.6486,05/23.0/2014,2000,H16.3,0.15
# From MPO252437
354879 2006 BG76,e,4.1154,95.5542,159.8698,2.305335,0.2815808,0.13335942,28.6561,05/23.0/2014,2000,H18.2,0.15
# From MPO252533
355277 2007 RN18,e,11.5311,304.0090,27.9256,2.518953,0.2465324,0.15205537,250.2355,05/23.0/2014,2000,H17.1,0.15
# From MPO260699
355455 2007 VC212,e,3.2447,113.2719,86.0663,2.556224,0.2411603,0.10896435,79.3311,05/23.0/2014,2000,H17.5,0.15
# From MPO260700
356014 2009 BO110,e,2.7945,62.2792,150.4088,2.521241,0.2461968,0.12969065,68.8283,05/23.0/2014,2000,H17.4,0.15
# From MPO258295
356039 2009 BX188,e,14.4001,144.0422,354.1186,2.524785,0.2456787,0.01411532,120.0794,05/23.0/2014,2000,H17.2,0.15
# From MPO258295
356071 2009 DO77,e,13.0415,154.4096,20.0297,2.521628,0.2461401,0.07359098,92.7402,05/23.0/2014,2000,H16.9,0.15
# From MPO258301
356743 2011 UL207,e,7.3434,3.9594,48.6628,2.523878,0.2458111,0.05074829,213.0541,05/23.0/2014,2000,H17.6,0.15
# From MPO260706
357249 2002 PQ68,e,2.5500,243.6441,52.6998,2.518803,0.2465544,0.12542833,1.1981,05/23.0/2014,2000,H17.2,0.15
# From MPO255052
357621 2005 EG94,e,10.7508,332.1050,38.2645,1.604762,0.4848287,0.46459514,335.1712,05/23.0/2014,2000,H18.4,0.15
# From MPO255295
358594 2007 UW80,e,1.9476,26.9277,350.7713,2.510854,0.2477262,0.01890457,254.5928,05/23.0/2014,2000,H17.5,0.15
# From MPO255554
359664 2011 SW87,e,3.6515,329.3065,31.2258,2.513918,0.2472734,0.13062425,252.0814,05/23.0/2014,2000,H17.6,0.15
# From MPO258652
360784 2005 FA5,e,3.7755,11.4605,181.1605,2.529583,0.2449800,0.11112414,99.8674,05/23.0/2014,2000,H17.4,0.15
# From MPO258839
361532 2007 HF44,e,2.9918,116.4038,314.0831,1.600386,0.4868183,0.31508776,300.2495,05/23.0/2014,2000,H19.2,0.15
# From MPO264907
361857 2008 EK23,e,8.4771,90.9325,102.0482,2.917206,0.1978124,0.14246992,73.2542,05/23.0/2014,2000,H16.4,0.15
# From MPO258927
361875 2008 FU22,e,6.3366,73.2860,140.2440,2.920102,0.1975182,0.05305147,67.9030,05/23.0/2014,2000,H17.0,0.15
# From MPO281742
362175 2009 FB21,e,1.6455,317.9761,258.9346,2.456578,0.2559812,0.14648997,97.3137,05/23.0/2014,2000,H17.6,0.15
# From MPO259116
362657 2011 TL9,e,3.2786,284.8272,139.1535,2.522270,0.2460462,0.11939122,201.5958,05/23.0/2014,2000,H17.5,0.15
# From MPO259151
362803 2011 YF3,e,6.1690,137.5736,249.5711,2.516318,0.2469197,0.15622157,259.4887,05/23.0/2014,2000,H16.8,0.15
# From MPO260977
363330 2002 PQ145,e,3.0790,165.7777,314.0137,43.65850,0.0034167,0.05105415,204.8908,05/23.0/2014,2000,H 5.7,0.15
# From MPO261045
363573 2004 BB9,e,10.6619,32.5256,8.6787,2.545078,0.2427462,0.22218804,250.9580,05/23.0/2014,2000,H16.4,0.15
# From MPO261109
363798 2005 KO4,e,11.1083,74.8325,175.4007,2.527182,0.2453292,0.13404815,74.6803,05/23.0/2014,2000,H17.1,0.15
# From MPO261204
364171 2006 JZ81,e,3.5475,36.3801,180.2754,44.72395,0.0032953,0.08119235,7.4689,05/23.0/2014,2000,H 6.7,0.15
# From MPO266860
365014 2008 OX2,e,6.6401,220.2969,251.8363,1.047643,0.9191450,0.60204415,40.6574,05/23.0/2014,2000,H20.2,0.15
# From MPO266861
365449 2010 NJ1,e,11.2258,128.2905,358.5151,0.968297,1.0344066,0.54059267,104.7486,05/23.0/2014,2000,H20.1,0.15
# From MPO265242
366734 2004 CQ24,e,6.1295,85.2640,0.2181,2.525266,0.2456084,0.16202546,246.7494,05/23.0/2014,2000,H17.3,0.15
# From MPO265284
366885 2005 TT28,e,8.3808,281.3691,70.2729,2.681054,0.2245152,0.10920024,4.9327,05/23.0/2014,2000,H16.3,0.15
# From MPO268403
367525 2009 QZ6,e,18.9164,281.7943,304.6278,1.595469,0.4890707,0.23313805,223.3970,05/23.0/2014,2000,H17.8,0.15
# From MPO277033
367943 2012 DA14,e,11.6090,146.9690,195.5547,0.910293,1.1348339,0.08940581,325.0443,05/23.0/2014,2000,H24.0,0.15
# From MPO266967
368153 1995 UX1,e,15.1807,14.0794,15.5909,2.657614,0.2274921,0.44288577,103.0269,05/23.0/2014,2000,H17.3,0.15
# From MPO267120
368696 2005 SA115,e,9.2877,200.0013,212.8152,2.587506,0.2368002,0.11202654,356.7897,05/23.0/2014,2000,H17.1,0.15
# From MPO277037
368703 2005 SC223,e,13.1865,284.8375,67.8506,2.516212,0.2469353,0.06837057,53.1333,05/23.0/2014,2000,H16.8,0.15
# From MPO267218
369073 2008 FO54,e,13.2389,195.7764,196.6569,2.521087,0.2462195,0.17643899,0.0829,05/23.0/2014,2000,H16.1,0.15
# From MPO281748
369452 2010 LG14,e,34.2121,271.3026,182.8219,1.045302,0.9222350,0.74266879,210.0578,05/23.0/2014,2000,H17.9,0.15
# From MPO277042
369958 1993 TV45,e,6.2705,52.5308,356.1261,2.535162,0.2441717,0.24019005,22.5197,05/23.0/2014,2000,H17.0,0.15
# From MPO273822
369983 1998 QB28,e,1.0764,341.5670,297.9378,2.073903,0.3300057,0.38006883,125.7166,05/23.0/2014,2000,H20.2,0.15
# From MPO273824
370085 2001 ST209,e,3.8772,158.2727,240.0127,2.532329,0.2445817,0.22360417,28.6692,05/23.0/2014,2000,H17.5,0.15
# From MPO273837
371120 2005 VN126,e,11.9720,18.8935,328.7507,2.553691,0.2415191,0.07469613,60.1291,05/23.0/2014,2000,H17.2,0.15
# From MPO269053
371920 2008 DN88,e,4.5408,107.6376,178.4418,2.531704,0.2446722,0.10468820,102.2527,05/23.0/2014,2000,H17.1,0.15
# From MPO273853
372523 2009 SN342,e,7.8163,187.6008,340.5348,2.557825,0.2409339,0.13555227,244.1075,05/23.0/2014,2000,H16.9,0.15
# From MPO277070
373537 2001 TJ178,e,3.8759,333.0953,351.5240,2.532851,0.2445061,0.14504314,91.3942,05/23.0/2014,2000,H17.3,0.15
# From MPO277071
